{
"type": "FeatureCollection",
"name": "islands-centroids",
"crs": { "type": "name", "properties": { "name": "urn:ogc:def:crs:OGC:1.3:CRS84" } },
"xy_coordinate_resolution": 1e-15,
"features": [
{"type":"Feature","properties":{"name":"Cuba"},"geometry":{"type":"Point","coordinates":[-79.534391291958727,21.582672105121748]}},
{"type":"Feature","properties":{"name":"Corsica"},"geometry":{"type":"Point","coordinates":[9.135100602949239,42.195378146766679]}},
{"type":"Feature","properties":{"name":"Sardinia"},"geometry":{"type":"Point","coordinates":[9.041360780740455,40.073719547285627]}},
{"type":"Feature","properties":{"name":"Sicily"},"geometry":{"type":"Point","coordinates":[14.24884889828774,37.649138640653078]}},
{"type":"Feature","properties":{"name":"Crete"},"geometry":{"type":"Point","coordinates":[24.900901159580343,35.240127921958404]}},
{"type":"Feature","properties":{"name":"Hokkaido"},"geometry":{"type":"Point","coordinates":[142.639223037667364,43.358554725977932]}},
{"type":"Feature","properties":{"name":"Mindanao"},"geometry":{"type":"Point","coordinates":[124.434196392151776,7.407360438016276]}},
{"type":"Feature","properties":{"name":"Sulawesi"},"geometry":{"type":"Point","coordinates":[121.754964238326195,-1.880772814431024]}},
{"type":"Feature","properties":{"name":"Hawaii (Big Island)"},"geometry":{"type":"Point","coordinates":[-155.490175251880231,19.58499716191287]}},
{"type":"Feature","properties":{"name":"Fiji (Viti Levu)"},"geometry":{"type":"Point","coordinates":[178.017597164978241,-17.790417549401024]}},
{"type":"Feature","properties":{"name":"New Guinea"},"geometry":{"type":"Point","coordinates":[140.737041113763098,-5.308312602100539]}},
{"type":"Feature","properties":{"name":"Sumatra"},"geometry":{"type":"Point","coordinates":[101.494940616725856,-0.371844805758242]}},
{"type":"Feature","properties":{"name":"Java"},"geometry":{"type":"Point","coordinates":[110.312283054632687,-7.046587768618783]}},
{"type":"Feature","properties":{"name":"Bali"},"geometry":{"type":"Point","coordinates":[115.088317268797823,-8.409803064974689]}},
{"type":"Feature","properties":{"name":"Luzon"},"geometry":{"type":"Point","coordinates":[121.971615871714278,15.422575229244357]}},
{"type":"Feature","properties":{"name":"Borneo"},"geometry":{"type":"Point","coordinates":[114.31545343068565,1.111595960308941]}},
{"type":"Feature","properties":{"name":"Sri Lanka"},"geometry":{"type":"Point","coordinates":[80.651834807899192,7.660674923556742]}},
{"type":"Feature","properties":{"name":"Madagascar"},"geometry":{"type":"Point","coordinates":[46.698806833917466,-19.191890606812063]}},
{"type":"Feature","properties":{"name":"Cyprus"},"geometry":{"type":"Point","coordinates":[33.346144186594415,35.03938037460243]}},
{"type":"Feature","properties":{"name":"Gran Canaria"},"geometry":{"type":"Point","coordinates":[-15.594543164362518,27.962689400921654]}},
{"type":"Feature","properties":{"name":"Tenerife"},"geometry":{"type":"Point","coordinates":[-16.548417756337017,28.306233337565065]}},
{"type":"Feature","properties":{"name":"Mallorca"},"geometry":{"type":"Point","coordinates":[2.945583075335398,39.619927760577916]}},
{"type":"Feature","properties":{"name":"Tasmania"},"geometry":{"type":"Point","coordinates":[146.605789449449759,-42.10120480509979]}},
{"type":"Feature","properties":{"name":"Taiwan"},"geometry":{"type":"Point","coordinates":[120.967894931023395,23.733280686557592]}},
{"type":"Feature","properties":{"name":"Guadeloupe"},"geometry":{"type":"Point","coordinates":[-61.531913499344697,16.236834862385322]}},
{"type":"Feature","properties":{"name":"Martinique"},"geometry":{"type":"Point","coordinates":[-60.988640148011093,14.639951433857538]}}
]
}
