{
"type": "FeatureCollection",
"name": "seas",
"crs": { "type": "name", "properties": { "name": "urn:ogc:def:crs:OGC:1.3:CRS84" } },
"xy_coordinate_resolution": 0.01,
"features": [
{"type":"Feature","properties":{"name":"Cuba"},"geometry":{"type":"MultiPolygon","coordinates":[[[[-85.18,22.02],[-83.62,23.13],[-80.66,23.41],[-77.45,22.27],[-73.93,20.37],[-74.12,19.81],[-77.84,19.62],[-80.0,21.4],[-83.04,21.18],[-85.0,21.56],[-85.18,22.02]]]]}},
{"type":"Feature","properties":{"name":"Corsica"},"geometry":{"type":"MultiPolygon","coordinates":[[[[9.49,43.0],[9.68,42.09],[9.24,41.34],[8.76,41.58],[8.53,42.38],[8.79,42.66],[9.33,43.03],[9.49,43.0]]]]}},
{"type":"Feature","properties":{"name":"Sardinia"},"geometry":{"type":"MultiPolygon","coordinates":[[[[9.37,41.34],[8.09,41.13],[8.28,38.78],[9.19,38.75],[9.81,39.12],[10.08,40.92],[9.37,41.34]]]]}},
{"type":"Feature","properties":{"name":"Sicily"},"geometry":{"type":"MultiPolygon","coordinates":[[[[15.81,38.27],[15.35,36.6],[12.25,37.72],[12.38,38.2],[15.81,38.27]]]]}},
{"type":"Feature","properties":{"name":"Crete"},"geometry":{"type":"MultiPolygon","coordinates":[[[[23.58,35.74],[26.51,35.33],[26.26,34.84],[24.6,34.88],[23.41,35.2],[23.58,35.74]]]]}},
{"type":"Feature","properties":{"name":"Hokkaido"},"geometry":{"type":"MultiPolygon","coordinates":[[[[141.98,45.92],[146.26,44.54],[146.36,42.47],[141.22,41.22],[139.29,41.28],[138.99,43.04],[141.98,45.92]]]]}},
{"type":"Feature","properties":{"name":"Mindanao"},"geometry":{"type":"MultiPolygon","coordinates":[[[[125.97,10.15],[121.67,8.15],[121.73,5.71],[125.8,5.29],[127.23,7.13],[125.97,10.15]]]]}},
{"type":"Feature","properties":{"name":"Sulawesi"},"geometry":{"type":"MultiPolygon","coordinates":[[[[119.14,-5.82],[123.59,-5.73],[125.35,1.78],[119.92,1.88],[118.47,-2.85],[119.14,-5.82]]]]}},
{"type":"Feature","properties":{"name":"Hawaii (Big Island)"},"geometry":{"type":"MultiPolygon","coordinates":[[[[-155.93,20.34],[-156.11,19.73],[-155.94,18.95],[-155.6,18.79],[-154.61,19.55],[-155.13,20.1],[-155.93,20.34]]]]}},
{"type":"Feature","properties":{"name":"Fiji (Viti Levu)"},"geometry":{"type":"MultiPolygon","coordinates":[[[[177.21,-18.12],[178.24,-18.34],[178.84,-18.03],[178.5,-17.24],[177.91,-17.27],[177.33,-17.48],[177.21,-18.12]]]]}},
{"type":"Feature","properties":{"name":"New Guinea"},"geometry":{"type":"MultiPolygon","coordinates":[[[[129.33,-1.38],[137.66,-10.1],[151.95,-11.45],[149.76,-5.19],[142.74,-0.75],[130.2,1.13],[129.33,-1.38]]]]}},
{"type":"Feature","properties":{"name":"Sumatra"},"geometry":{"type":"MultiPolygon","coordinates":[[[[94.41,6.13],[98.49,-2.07],[105.07,-7.0],[107.89,-4.57],[107.39,-1.82],[97.98,6.01],[94.41,6.13]]]]}},
{"type":"Feature","properties":{"name":"Java"},"geometry":{"type":"MultiPolygon","coordinates":[[[[104.94,-7.0],[114.77,-8.79],[114.39,-6.5],[106.83,-5.69],[105.79,-5.84],[104.94,-7.0]]]]}},
{"type":"Feature","properties":{"name":"Bali"},"geometry":{"type":"MultiPolygon","coordinates":[[[[114.4,-8.15],[115.22,-8.01],[115.79,-8.38],[115.24,-8.9],[115.04,-8.85],[114.52,-8.44],[114.4,-8.15]]]]}},
{"type":"Feature","properties":{"name":"Luzon"},"geometry":{"type":"MultiPolygon","coordinates":[[[[120.3,18.76],[122.79,18.56],[125.18,13.15],[123.87,12.3],[120.11,13.2],[119.2,16.32],[120.3,18.76]]]]}},
{"type":"Feature","properties":{"name":"Borneo"},"geometry":{"type":"MultiPolygon","coordinates":[[[[107.96,1.63],[117.2,7.95],[120.27,5.31],[116.86,-4.47],[114.11,-4.73],[108.88,-2.89],[107.96,1.63]]]]}},
{"type":"Feature","properties":{"name":"Sri Lanka"},"geometry":{"type":"MultiPolygon","coordinates":[[[[79.56,10.01],[80.72,9.98],[82.63,6.6],[80.66,5.37],[79.91,5.83],[79.18,7.94],[79.56,10.01]]]]}},
{"type":"Feature","properties":{"name":"Madagascar"},"geometry":{"type":"MultiPolygon","coordinates":[[[[49.54,-11.46],[51.26,-15.21],[47.52,-25.84],[42.79,-25.82],[42.81,-21.41],[43.97,-15.65],[49.54,-11.46]]]]}},
{"type":"Feature","properties":{"name":"Cyprus"},"geometry":{"type":"MultiPolygon","coordinates":[[[[32.1,35.19],[34.75,35.81],[34.18,34.74],[32.48,34.31],[32.16,34.78],[32.1,35.19]]]]}},
{"type":"Feature","properties":{"name":"Gran Canaria"},"geometry":{"type":"MultiPolygon","coordinates":[[[[-15.96,28.01],[-15.71,28.21],[-15.34,28.21],[-15.27,28.02],[-15.36,27.76],[-15.65,27.67],[-15.88,27.82],[-15.96,28.01]]]]}},
{"type":"Feature","properties":{"name":"Tenerife"},"geometry":{"type":"MultiPolygon","coordinates":[[[[-16.01,28.58],[-16.53,27.93],[-16.79,27.94],[-17.01,28.43],[-16.28,28.63],[-16.01,28.58]]]]}},
{"type":"Feature","properties":{"name":"Mallorca"},"geometry":{"type":"MultiPolygon","coordinates":[[[[3.21,40.05],[3.6,39.7],[3.08,39.18],[2.1,39.6],[3.21,40.05]]]]}},
{"type":"Feature","properties":{"name":"Tasmania"},"geometry":{"type":"MultiPolygon","coordinates":[[[[144.58,-40.32],[148.73,-40.64],[148.34,-43.82],[146.04,-44.14],[144.47,-42.42],[144.58,-40.32]]]]}},
{"type":"Feature","properties":{"name":"Taiwan"},"geometry":{"type":"MultiPolygon","coordinates":[[[[121.52,25.49],[122.28,25.01],[120.98,21.62],[119.75,22.98],[120.21,24.59],[121.52,25.49]]]]}},
{"type":"Feature","properties":{"name":"Guadeloupe"},"geometry":{"type":"MultiPolygon","coordinates":[[[[-61.89,16.35],[-61.4,16.57],[-61.09,16.21],[-61.76,15.87],[-61.89,16.35]]]]}},
{"type":"Feature","properties":{"name":"Martinique"},"geometry":{"type":"MultiPolygon","coordinates":[[[[-61.28,14.86],[-61.11,14.41],[-60.82,14.33],[-60.73,14.46],[-60.82,14.84],[-61.14,14.93],[-61.28,14.86]]]]}}
]
}
